{
"type": "FeatureCollection",
"name": "Amy Dance Studio",
"crs": { "type": "name", "properties": { "name": "urn:ogc:def:crs:OGC:1.3:CRS84" } },
"features": [
{ "type": "Feature", "properties": { "Name": "Amy Dance Studio", "tessellate": -1, "extrude": 0, "visibility": -1 }, "geometry": { "type": "Polygon", "coordinates": [ [ [ 81.807799207659912, 16.399241904863619, 0.0 ], [ 81.807761406512057, 16.39926708023226, 0.0 ], [ 81.807711055544786, 16.399258123824492, 0.0 ], [ 81.807676556983793, 16.39922292105226, 0.0 ], [ 81.807683438980717, 16.399181104892779, 0.0 ], [ 81.807727363759341, 16.399132919751342, 0.0 ], [ 81.807797641026298, 16.399173113529329, 0.0 ], [ 81.807799207659912, 16.399241904863619, 0.0 ] ] ] } }
]
}
