{
"type": "FeatureCollection",
"name": "Mike Wandell",
"crs": { "type": "name", "properties": { "name": "urn:ogc:def:crs:OGC:1.3:CRS84" } },
"features": [
{ "type": "Feature", "properties": { "Name": "Mike Wandell", "tessellate": -1, "extrude": 0, "visibility": -1 }, "geometry": { "type": "Polygon", "coordinates": [ [ [ 81.808250884167393, 16.400133719827881, 0.0 ], [ 81.808648879700087, 16.40022891118992, 0.0 ], [ 81.808544334771568, 16.400513940628599, 0.0 ], [ 81.808172388165971, 16.400395549547181, 0.0 ], [ 81.808250884167393, 16.400133719827881, 0.0 ] ] ] } },
{ "type": "Feature", "properties": { "Name": "Girls Hostel", "tessellate": -1, "extrude": 0, "visibility": -1 }, "geometry": { "type": "Polygon", "coordinates": [ [ [ 81.808535931557259, 16.40050764594324, 0.0 ], [ 81.80843738827609, 16.400473863669639, 0.0 ], [ 81.808508482391957, 16.400207926852289, 0.0 ], [ 81.808654428695078, 16.400251404732661, 0.0 ], [ 81.808535931557259, 16.40050764594324, 0.0 ] ] ] } },
{ "type": "Feature", "properties": { "Name": "Boys Hostel", "tessellate": -1, "extrude": 0, "visibility": -1 }, "geometry": { "type": "Polygon", "coordinates": [ [ [ 81.808283572492243, 16.400425678245028, 0.0 ], [ 81.808173080979017, 16.400394103504279, 0.0 ], [ 81.80824498323571, 16.400147398278641, 0.0 ], [ 81.808382217437909, 16.400181696091749, 0.0 ], [ 81.808283572492243, 16.400425678245028, 0.0 ] ] ] } },
{ "type": "Feature", "properties": { "Name": "Dining Hall / Study Hall", "tessellate": -1, "extrude": 0, "visibility": -1 }, "geometry": { "type": "Polygon", "coordinates": [ [ [ 81.808445306079975, 16.40040043690551, 0.0 ], [ 81.808311912963589, 16.40036203505182, 0.0 ], [ 81.808359657086527, 16.400178080885581, 0.0 ], [ 81.808514437340691, 16.400220706331329, 0.0 ], [ 81.808445306079975, 16.40040043690551, 0.0 ] ] ] } }
]
}
