{
"type": "FeatureCollection",
"name": "Outline",
"crs": { "type": "name", "properties": { "name": "urn:ogc:def:crs:OGC:1.3:CRS84" } },
"features": [
{ "type": "Feature", "properties": { "Name": "Riverside  School ", "tessellate": -1, "extrude": 0, "visibility": -1 }, "geometry": { "type": "Polygon", "coordinates": [ [ [ 81.806892182109294, 16.39831188322897, 0.0 ], [ 81.806890032513465, 16.397871532208239, 0.0 ], [ 81.80703359478629, 16.397416760406699, 0.0 ], [ 81.807343173942968, 16.397515378609882, 0.0 ], [ 81.807196310064612, 16.398100825089362, 0.0 ], [ 81.807509134055962, 16.398175426996492, 0.0 ], [ 81.807570615268759, 16.39805862039945, 0.0 ], [ 81.807581665602953, 16.397920479312031, 0.0 ], [ 81.809048576262654, 16.398187350317421, 0.0 ], [ 81.809036648423486, 16.398337856507091, 0.0 ], [ 81.809036648423486, 16.398337856507091, 0.0 ], [ 81.809302090617436, 16.398347992737051, 0.0 ], [ 81.80924609913545, 16.398746756230619, 0.0 ], [ 81.809463434476484, 16.398898952196031, 0.0 ], [ 81.809428759310833, 16.39918793678833, 0.0 ], [ 81.809336905877046, 16.399489866891798, 0.0 ], [ 81.809299650503547, 16.399784879586029, 0.0 ], [ 81.809323329519458, 16.400075435476872, 0.0 ], [ 81.809318288062229, 16.400302225319429, 0.0 ], [ 81.809278718348111, 16.400525816694781, 0.0 ], [ 81.809034958463343, 16.400478150539101, 0.0 ], [ 81.808989185316108, 16.40062391727238, 0.0 ], [ 81.808864670214533, 16.400601426033461, 0.0 ], [ 81.808937568597585, 16.40023793978461, 0.0 ], [ 81.808881058102941, 16.400216752045441, 0.0 ], [ 81.808904179403939, 16.40004666841703, 0.0 ], [ 81.808759965888328, 16.40001445479886, 0.0 ], [ 81.808732127918674, 16.40008050664888, 0.0 ], [ 81.808699252388479, 16.400203323542051, 0.0 ], [ 81.808543226714477, 16.400514235551579, 0.0 ], [ 81.808173057467627, 16.400395989963251, 0.0 ], [ 81.808244927662244, 16.400117038224931, 0.0 ], [ 81.808011580681708, 16.400059662368399, 0.0 ], [ 81.808039626526195, 16.399957618442581, 0.0 ], [ 81.808263628931499, 16.40000697483347, 0.0 ], [ 81.808276876844744, 16.39993038674282, 0.0 ], [ 81.808407164631703, 16.399275481738439, 0.0 ], [ 81.807955630768603, 16.399208958292689, 0.0 ], [ 81.807750083935133, 16.399722980814019, 0.0 ], [ 81.807328126837078, 16.399598497311391, 0.0 ], [ 81.80743847379172, 16.399176178618941, 0.0 ], [ 81.807643516218221, 16.39920894389439, 0.0 ], [ 81.807677598001874, 16.399090453909409, 0.0 ], [ 81.807726243903517, 16.39887340251261, 0.0 ], [ 81.807497522204955, 16.398810226648941, 0.0 ], [ 81.80757107588714, 16.39849790749594, 0.0 ], [ 81.806892182109294, 16.39831188322897, 0.0 ] ] ] } },
{ "type": "Feature", "properties": { "Name": "Map area", "tessellate": -1, "extrude": 0, "visibility": -1 }, "geometry": { "type": "Polygon", "coordinates": [ [ [ 81.806380608499055, 16.400100291621388, 0.0 ], [ 81.80696792581233, 16.397338975348219, 0.0 ], [ 81.809879135181205, 16.3980046917466, 0.0 ], [ 81.809228998388932, 16.400738775319901, 0.0 ], [ 81.806380608499055, 16.400100291621388, 0.0 ] ] ] } }
]
}
