{
"type": "FeatureCollection",
"name": "Roads and Paths",
"crs": { "type": "name", "properties": { "name": "urn:ogc:def:crs:OGC:1.3:CRS84" } },
"features": [
{ "type": "Feature", "properties": { "Name": "Main Enterance", "tessellate": -1, "extrude": 0, "visibility": -1 }, "geometry": { "type": "Polygon", "coordinates": [ [ [ 81.808520673944727, 16.39923009497257, 0.0 ], [ 81.808479629036071, 16.399225074882391, 0.0 ], [ 81.808580562362778, 16.39870262349022, 0.0 ], [ 81.808631131191817, 16.39871945211604, 0.0 ], [ 81.808520673944727, 16.39923009497257, 0.0 ] ] ] } },
{ "type": "Feature", "properties": { "Name": "Gate of Salvation", "tessellate": -1, "extrude": 0, "visibility": -1 }, "geometry": { "type": "Polygon", "coordinates": [ [ [ 81.809091573816104, 16.399889965485521, 0.0 ], [ 81.809251406230089, 16.398896639030269, 0.0 ], [ 81.809353928791708, 16.39891746726029, 0.0 ], [ 81.809184575653816, 16.39991761060125, 0.0 ], [ 81.809091573816104, 16.399889965485521, 0.0 ] ] ] } },
{ "type": "Feature", "properties": { "Name": "From Main School Entrence towards Chairmans Residency ", "tessellate": -1, "extrude": 0, "visibility": -1 }, "geometry": { "type": "Polygon", "coordinates": [ [ [ 81.808521580534489, 16.399233725951401, 0.0 ], [ 81.808420308499691, 16.39972016724046, 0.0 ], [ 81.808496133004255, 16.399758577811092, 0.0 ], [ 81.808487054719706, 16.39977945836576, 0.0 ], [ 81.80842949348289, 16.399757223262672, 0.0 ], [ 81.808401401127625, 16.399750476039411, 0.0 ], [ 81.808377482504042, 16.399729785017001, 0.0 ], [ 81.8084736520576, 16.399226637679661, 0.0 ], [ 81.808521580534489, 16.399233725951401, 0.0 ] ] ] } },
{ "type": "Feature", "properties": { "Name": "From Chairmans Residency to Mic Wandel Building", "tessellate": -1, "extrude": 0, "visibility": -1 }, "geometry": { "type": "Polygon", "coordinates": [ [ [ 81.808475832266453, 16.39992669443653, 0.0 ], [ 81.808601273120388, 16.39995484089005, 0.0 ], [ 81.80853771564388, 16.400166245444549, 0.0 ], [ 81.808520356369584, 16.400165394997789, 0.0 ], [ 81.808533458841467, 16.400112017332582, 0.0 ], [ 81.808433041834718, 16.400091138777089, 0.0 ], [ 81.808441008031963, 16.400052878636831, 0.0 ], [ 81.80854223848344, 16.400077843312111, 0.0 ], [ 81.808567490167761, 16.399977266614449, 0.0 ], [ 81.808436939750877, 16.399945811631, 0.0 ], [ 81.808468965269014, 16.39977486793774, 0.0 ], [ 81.808497867394607, 16.39977994802312, 0.0 ], [ 81.808475832266453, 16.39992669443653, 0.0 ] ] ] } },
{ "type": "Feature", "properties": { "Name": "From Subbamma House to Subbamma Chapel to Smh Hospital", "tessellate": -1, "extrude": 0, "visibility": -1 }, "geometry": { "type": "Polygon", "coordinates": [ [ [ 81.808617583077023, 16.399808062348409, 0.0 ], [ 81.80864776348092, 16.39981740998039, 0.0 ], [ 81.808878084603663, 16.399901918089451, 0.0 ], [ 81.808868237141098, 16.399926367201161, 0.0 ], [ 81.808647764885976, 16.399845452573668, 0.0 ], [ 81.80863699615135, 16.399851066639549, 0.0 ], [ 81.808630137805622, 16.399875379519969, 0.0 ], [ 81.808776701576903, 16.399920526161601, 0.0 ], [ 81.808769833777831, 16.399943033979721, 0.0 ], [ 81.808621357365027, 16.399897820505519, 0.0 ], [ 81.808599785735765, 16.399952092758589, 0.0 ], [ 81.808576662097622, 16.399948038014799, 0.0 ], [ 81.808617583077023, 16.399808062348409, 0.0 ] ] ] } },
{ "type": "Feature", "properties": { "Name": "From School Washrooms to School Backside ", "tessellate": -1, "extrude": 0, "visibility": -1 }, "geometry": { "type": "Polygon", "coordinates": [ [ [ 81.808891242035799, 16.399420000899671, 0.0 ], [ 81.808501937192304, 16.399339261461432, 0.0 ], [ 81.808503777698633, 16.399327576338418, 0.0 ], [ 81.808555980748253, 16.399337321588199, 0.0 ], [ 81.80863133260145, 16.39935223565152, 0.0 ], [ 81.808894623147154, 16.399402655758259, 0.0 ], [ 81.808920559127955, 16.399403609113229, 0.0 ], [ 81.808819970009225, 16.399879348096501, 0.0 ], [ 81.808803198569649, 16.399871396371129, 0.0 ], [ 81.808891242035799, 16.399420000899671, 0.0 ] ] ] } },
{ "type": "Feature", "properties": { "Name": "From school front side and right side of the school to wash rooms", "tessellate": -1, "extrude": 0, "visibility": -1 }, "geometry": { "type": "Polygon", "coordinates": [ [ [ 81.808570655731884, 16.398997543717741, 0.0 ], [ 81.809007963678027, 16.39908455063788, 0.0 ], [ 81.80892025326412, 16.39941123120618, 0.0 ], [ 81.808895531322435, 16.39940223962018, 0.0 ], [ 81.808987856382387, 16.399104986821481, 0.0 ], [ 81.808567635895983, 16.399023133816211, 0.0 ], [ 81.808570655731884, 16.398997543717741, 0.0 ] ] ] } },
{ "type": "Feature", "properties": { "Name": "School front side middle Gate entrence", "tessellate": -1, "extrude": 0, "visibility": -1 }, "geometry": { "type": "Polygon", "coordinates": [ [ [ 81.808766003400379, 16.39902627135692, 0.0 ], [ 81.808731459301555, 16.398989723475449, 0.0 ], [ 81.808737330944055, 16.398957725781891, 0.0 ], [ 81.808756305876514, 16.398923441594999, 0.0 ], [ 81.808794359232706, 16.398901759384209, 0.0 ], [ 81.808827603807757, 16.39877485475602, 0.0 ], [ 81.808885938775745, 16.398783207639401, 0.0 ], [ 81.808845579905451, 16.398914625644888, 0.0 ], [ 81.80887172831136, 16.39895006811993, 0.0 ], [ 81.808880048904513, 16.398986584117502, 0.0 ], [ 81.808859875558426, 16.39901728631855, 0.0 ], [ 81.808817126330567, 16.399043421017279, 0.0 ], [ 81.808794547174969, 16.399038841130459, 0.0 ], [ 81.808766003400379, 16.39902627135692, 0.0 ] ] ] } },
{ "type": "Feature", "properties": { "Name": "From school plagy ground to Jessy Auditorium , and Jessy Auditorium Main Entrence", "tessellate": -1, "extrude": 0, "visibility": -1 }, "geometry": { "type": "Polygon", "coordinates": [ [ [ 81.808465942552886, 16.399248474134509, 0.0 ], [ 81.808458664928054, 16.39928362330236, 0.0 ], [ 81.807966326287072, 16.399187044786739, 0.0 ], [ 81.80792603946017, 16.39918363427569, 0.0 ], [ 81.807896968244009, 16.399230334677249, 0.0 ], [ 81.807890251480615, 16.39926668563723, 0.0 ], [ 81.807745408272623, 16.399691727576531, 0.0 ], [ 81.807540440057068, 16.399614612472551, 0.0 ], [ 81.807557756256529, 16.399562866513431, 0.0 ], [ 81.807701204865396, 16.399605805674479, 0.0 ], [ 81.807772422694853, 16.39929635489716, 0.0 ], [ 81.807842097963345, 16.399222399483509, 0.0 ], [ 81.807954497429932, 16.39913957188768, 0.0 ], [ 81.808086325665371, 16.398617507619939, 0.0 ], [ 81.808132103120997, 16.398632921526779, 0.0 ], [ 81.807988740055478, 16.399159216470242, 0.0 ], [ 81.808465942552886, 16.399248474134509, 0.0 ] ] ] } },
{ "type": "Feature", "properties": { "Name": "Conference centre Main Entrence", "tessellate": -1, "extrude": 0, "visibility": -1 }, "geometry": { "type": "Polygon", "coordinates": [ [ [ 81.808629553897219, 16.398490359759421, 0.0 ], [ 81.808624950168863, 16.39847829097576, 0.0 ], [ 81.808593921748212, 16.398456292773869, 0.0 ], [ 81.80858243135765, 16.398438714813629, 0.0 ], [ 81.808581290147544, 16.39841457698811, 0.0 ], [ 81.808615781949115, 16.398426754901909, 0.0 ], [ 81.808627257870711, 16.39843993800914, 0.0 ], [ 81.808644466101271, 16.398452034020892, 0.0 ], [ 81.808661659987564, 16.39845207276262, 0.0 ], [ 81.808686879710294, 16.398452147966118, 0.0 ], [ 81.80870748750857, 16.398434709273818, 0.0 ], [ 81.808740637333713, 16.398442474660929, 0.0 ], [ 81.808734925299106, 16.398455569566849, 0.0 ], [ 81.808705210154798, 16.398480649658229, 0.0 ], [ 81.808668548445695, 16.3984958959085, 0.0 ], [ 81.808634195181284, 16.398637191902559, 0.0 ], [ 81.808596403741319, 16.398625171341841, 0.0 ], [ 81.808629553897219, 16.398490359759421, 0.0 ] ] ] } },
{ "type": "Feature", "properties": { "Name": "Smart Village Centre Main ENtrence", "tessellate": -1, "extrude": 0, "visibility": -1 }, "geometry": { "type": "Polygon", "coordinates": [ [ [ 81.808845394688504, 16.398689127162839, 0.0 ], [ 81.808879449788265, 16.398560474807809, 0.0 ], [ 81.808912302468798, 16.398535438380762, 0.0 ], [ 81.808902101603266, 16.398514754353691, 0.0 ], [ 81.808890764762779, 16.398497329217829, 0.0 ], [ 81.808907741636446, 16.398432081407151, 0.0 ], [ 81.808921327018382, 16.398437553196722, 0.0 ], [ 81.808904357126593, 16.39850061414187, 0.0 ], [ 81.808922491172837, 16.39853870748129, 0.0 ], [ 81.808900992599405, 16.3985735393106, 0.0 ], [ 81.808868700968205, 16.398689785770259, 0.0 ], [ 81.808845394688504, 16.398689127162839, 0.0 ] ] ] } },
{ "type": "Feature", "properties": { "Name": "Hospital Mainentrence and the way towards subbamma chapel and the way to backside of the hospital", "tessellate": -1, "extrude": 0, "visibility": -1 }, "geometry": { "type": "Polygon", "coordinates": [ [ [ 81.808879827730777, 16.39988966858245, 0.0 ], [ 81.808925512547333, 16.39989518402394, 0.0 ], [ 81.808968970855958, 16.399890807752399, 0.0 ], [ 81.80899763494233, 16.399865521247541, 0.0 ], [ 81.809043437158621, 16.399862228305519, 0.0 ], [ 81.809096168507992, 16.39986003086517, 0.0 ], [ 81.809260740865028, 16.3988976278062, 0.0 ], [ 81.8093625202916, 16.39891809076898, 0.0 ], [ 81.809200503799659, 16.399865036781311, 0.0 ], [ 81.809229202015644, 16.399897569003919, 0.0 ], [ 81.809304670048903, 16.399917520990169, 0.0 ], [ 81.809346287877432, 16.399944987955511, 0.0 ], [ 81.809286592418999, 16.400383041739978, 0.0 ], [ 81.809077853205281, 16.400353881976319, 0.0 ], [ 81.809062175153656, 16.40047169781575, 0.0 ], [ 81.809009914497565, 16.400464177543022, 0.0 ], [ 81.809033431727443, 16.400321294668789, 0.0 ], [ 81.809255362315653, 16.400345754492069, 0.0 ], [ 81.80929182871094, 16.400000781425131, 0.0 ], [ 81.809278234452847, 16.399963487583459, 0.0 ], [ 81.809241310696734, 16.399936423294221, 0.0 ], [ 81.80917306646397, 16.399914882650329, 0.0 ], [ 81.809139965326821, 16.399908360847121, 0.0 ], [ 81.809104946506665, 16.399897169902399, 0.0 ], [ 81.809070002679292, 16.39989347551494, 0.0 ], [ 81.809044666664064, 16.399912143895349, 0.0 ], [ 81.809024032401879, 16.39994169008413, 0.0 ], [ 81.808874684108119, 16.399923167315919, 0.0 ], [ 81.808879827730777, 16.39988966858245, 0.0 ] ] ] } },
{ "type": "Feature", "properties": { "Name": "Way to bethel Villa from CHairmans Recidency and Mick wandel building", "tessellate": -1, "extrude": 0, "visibility": -1 }, "geometry": { "type": "Polygon", "coordinates": [ [ [ 81.808289253384828, 16.40013833407161, 0.0 ], [ 81.808289400384822, 16.40009806686416, 0.0 ], [ 81.808324457703193, 16.40005113420947, 0.0 ], [ 81.808289660515598, 16.40001496286855, 0.0 ], [ 81.808176302444409, 16.399996795411461, 0.0 ], [ 81.808169776677872, 16.400019609533189, 0.0 ], [ 81.808146302310632, 16.400013814226401, 0.0 ], [ 81.808155951815706, 16.399984684308389, 0.0 ], [ 81.808262840747958, 16.400008631618832, 0.0 ], [ 81.808317694505149, 16.399818429433299, 0.0 ], [ 81.808362007079324, 16.39972396978515, 0.0 ], [ 81.808384132173984, 16.399738808747621, 0.0 ], [ 81.808339211345725, 16.39983357952779, 0.0 ], [ 81.808293360161372, 16.399990347721179, 0.0 ], [ 81.808342718075934, 16.400046240905951, 0.0 ], [ 81.80831647220711, 16.400096346524951, 0.0 ], [ 81.808308666476293, 16.400136260025409, 0.0 ], [ 81.808289253384828, 16.40013833407161, 0.0 ] ] ] } }
]
}
