{
"type": "FeatureCollection",
"name": "Smart Village Centre",
"crs": { "type": "name", "properties": { "name": "urn:ogc:def:crs:OGC:1.3:CRS84" } },
"features": [
{ "type": "Feature", "properties": { "Name": "Smart Village Centre ", "tessellate": -1, "extrude": 0, "visibility": -1 }, "geometry": { "type": "Polygon", "coordinates": [ [ [ 81.808920611676882, 16.398336564213029, 0.0 ], [ 81.808847767395335, 16.398326106360798, 0.0 ], [ 81.808801516106072, 16.39831900948337, 0.0 ], [ 81.808820147318244, 16.398151538382521, 0.0 ], [ 81.808930614563323, 16.398174133150849, 0.0 ], [ 81.808920611676882, 16.398336564213029, 0.0 ] ] ] } }
]
}
