{
"type": "FeatureCollection",
"name": "Subbamma Hospital",
"crs": { "type": "name", "properties": { "name": "urn:ogc:def:crs:OGC:1.3:CRS84" } },
"features": [
{ "type": "Feature", "properties": { "Name": "Subbamma Hospital ", "tessellate": -1, "extrude": 0, "visibility": -1 }, "geometry": { "type": "LineString", "coordinates": [ [ 81.809290874072943, 16.400001397845099, 0.0 ], [ 81.80922936159169, 16.400289261176919, 0.0 ], [ 81.809095628209505, 16.400264462180559, 0.0 ], [ 81.809090923110702, 16.400304062183071, 0.0 ], [ 81.809000373020709, 16.400286040184849, 0.0 ], [ 81.809004573992794, 16.400245660690089, 0.0 ], [ 81.808876348687164, 16.40022628642615, 0.0 ], [ 81.808937933501099, 16.399936821613949, 0.0 ], [ 81.80929461874662, 16.400000605771719, 0.0 ] ] } }
]
}
